[{"OBJECT_NAME":"STARLINK-30534","OBJECT_ID":"2023-153B","EPOCH":"2026-03-09T23:28:27.193728","MEAN_MOTION":15.2732689,"ECCENTRICITY":2.726e-5,"INCLINATION":42.9996,"RA_OF_ASC_NODE":65.1547,"ARG_OF_PERICENTER":225.5896,"MEAN_ANOMALY":134.4933,"EPHEMERIS_TYPE":0,"CLASSIFICATION_TYPE":"U","NORAD_CAT_ID":57992,"ELEMENT_SET_NO":999,"REV_AT_EPOCH":13484,"BSTAR":0.0056972934,"MEAN_MOTION_DOT":0.00158702,"MEAN_MOTION_DDOT":0},{"OBJECT_NAME":"KUIPER-00209","OBJECT_ID":"2026-030N","EPOCH":"2026-03-09T14:49:43.575744","MEAN_MOTION":15.3016195,"ECCENTRICITY":0.0012191,"INCLINATION":51.8838,"RA_OF_ASC_NODE":220.0775,"ARG_OF_PERICENTER":59.1967,"MEAN_ANOMALY":301.0215,"EPHEMERIS_TYPE":0,"CLASSIFICATION_TYPE":"U","NORAD_CAT_ID":67776,"ELEMENT_SET_NO":999,"REV_AT_EPOCH":507,"BSTAR":0.0011963,"MEAN_MOTION_DOT":0.00035298,"MEAN_MOTION_DDOT":0}]
