STARLINK-30534          
1 57992U 23153B   26068.97809251  .00158702  00000+0  56973-2 0  9993
2 57992  42.9996  65.1547 0000273 225.5896 134.4933 15.27326890134840
KUIPER-00209            
1 67776U 26030N   26068.61786546  .00035298  00000+0  11963-2 0  9997
2 67776  51.8838 220.0775 0012191  59.1967 301.0215 15.30161950  5077
